COSMOS 2251 DEB         
1 34396U 93036QM  17345.76958469  .00000618  00000-0  19210-3 0  9991
2 34396  74.0409 207.9606 0019180 258.7083 178.8711 14.43006249459939
